STARLINK-1047           
1 44752U 19074AR  26068.49630605  .00012216  00000+0  39384-3 0  9999
2 44752  53.0690 146.9116 0002226 203.7253 156.3646 15.32581056349316
STARLINK-35035          
1 65407U 25192D   26068.76462685  .00028198  00000+0  93583-3 0  9995
2 65407  53.1616 232.1540 0001098  73.9902 286.1220 15.31044584 29390
