[{"OBJECT_NAME":"STARLINK-1047","OBJECT_ID":"2019-074AR","EPOCH":"2026-03-09T11:54:40.842720","MEAN_MOTION":15.32581056,"ECCENTRICITY":0.00022261,"INCLINATION":53.069,"RA_OF_ASC_NODE":146.9116,"ARG_OF_PERICENTER":203.7253,"MEAN_ANOMALY":156.3646,"EPHEMERIS_TYPE":0,"CLASSIFICATION_TYPE":"U","NORAD_CAT_ID":44752,"ELEMENT_SET_NO":999,"REV_AT_EPOCH":34931,"BSTAR":0.00039384285,"MEAN_MOTION_DOT":0.00012216,"MEAN_MOTION_DDOT":0},{"OBJECT_NAME":"STARLINK-35035","OBJECT_ID":"2025-192D","EPOCH":"2026-03-09T18:21:03.759840","MEAN_MOTION":15.31044584,"ECCENTRICITY":0.00010982,"INCLINATION":53.1616,"RA_OF_ASC_NODE":232.154,"ARG_OF_PERICENTER":73.9902,"MEAN_ANOMALY":286.122,"EPHEMERIS_TYPE":0,"CLASSIFICATION_TYPE":"U","NORAD_CAT_ID":65407,"ELEMENT_SET_NO":999,"REV_AT_EPOCH":2939,"BSTAR":0.00093583349,"MEAN_MOTION_DOT":0.00028198,"MEAN_MOTION_DDOT":0}]
